#aV2016  5 24  0  0  0.00000000     288 DD+AD WGS84 FIT  NGA
## 1898 172800.00000000   300.00000000 57532 0.0000000000000
+   31     1  2  3  5  6  7  8  9 10 11 12 13 14 15 16 17 18
+         19 20 21 22 23 24 25 26 27 28 29 30 31 32  0  0  0
+          0  0  0  0  0  0  0  0  0  0  0  0  0  0  0  0  0
+          0  0  0  0  0  0  0  0  0  0  0  0  0  0  0  0  0
+          0  0  0  0  0  0  0  0  0  0  0  0  0  0  0  0  0
++         2  2  2  2  2  2  2  2  2  2  2  2  2  2  2  2  2
++         2  2  2  2  2  2  2  2  2  2  2  2  2  2  0  0  0
++         0  0  0  0  0  0  0  0  0  0  0  0  0  0  0  0  0
++         0  0  0  0  0  0  0  0  0  0  0  0  0  0  0  0  0
++         0  0  0  0  0  0  0  0  0  0  0  0  0  0  0  0  0
%c cc cc ccc ccc cccc cccc cccc cccc ccccc ccccc ccccc ccccc
%c cc cc ccc ccc cccc cccc cccc cccc ccccc ccccc ccccc ccccc
%f  0.0000000  0.000000000  0.00000000000  0.000000000000000
%f  0.0000000  0.000000000  0.00000000000  0.000000000000000
%i    0    0    0    0      0      0      0      0         0
%i    0    0    0    0      0      0      0      0         0
/*      NGA, ST. LOUIS,MO.                                  
/*   EPHEMERIS COMPUTED FROM 2 DAYS OF DATA                 
/*   EPOCHA v2.4 SMOOTHER                                   
/*   G1762 IERS2010 SATAF SATAPC                            
*  2016  5 24 20  5  0.00000000
P  1  14128.491907 -21072.008543   7359.979935     21.423744                    
V  1  -1042.480697   9845.006267  30101.345755      0.012029                    
P  2 -16421.142485   2360.340138 -20222.826349    589.870857                    
V  2   7810.609244 -25695.777925  -9532.597483     -0.023306                    
P  3  17117.338279 -13303.816435 -15340.794650    -60.893936                    
V  3  19589.110971   -719.538042  22465.770996     -0.036495                    
P  5 -26467.590972   2910.972320  -1600.887247   -118.248394                    
V  5   1450.646587  -3365.374849 -31205.370815      0.030220                    
P  6  -9745.160860 -13858.118513 -20440.973081    194.943860                    
V  6  10509.181760 -23775.703081  11103.570716      0.054555                    
P  7   4365.547055 -24678.028233   8282.407252    452.670786                    
V  7   6636.032981  -8513.141753 -29741.466282     -0.022877                    
P  8  15014.666405  -4995.685696  21388.016619    -36.369833                    
V  8  16404.961149  21481.222506  -6476.949682     -0.014620                    
P  9  -3217.226486 -21445.108043 -15337.480220    135.396637                    
V  9  13790.838767  13910.173397 -22379.151234      0.073158                    
P 10  13897.753327  11723.665284  19403.871604    -30.008528                    
V 10 -24139.350820   4802.348019  14336.683923     -0.087924                    
P 11  11718.770324 -18532.911446  14409.117406   -648.093949                    
V 11   3388.837050  19512.397132  21556.531222     -0.014047                    
P 12 -20115.738354  10732.982753 -13571.460409    380.706855                    
V 12 -17119.194709    -80.520728  25768.119355      0.011738                    
P 13 -17884.138356  -4319.341762  18995.599527    -20.080490                    
V 13 -11680.306454 -21450.417437 -15853.610803     -0.025952                    
P 14  16535.399716  20588.948136  -3337.246557    -15.627676                    
V 14    386.397317   5193.000512  31354.415839     -0.020565                    
P 15 -13448.700089   8543.593927  21145.741647   -312.318923                    
V 15 -17913.801639 -20519.415690  -2737.135749     -0.016555                    
P 16  26685.281416   -378.788892  -2275.904824    -15.389309                    
V 16  -2607.647854   1708.272422 -31972.122566      0.025476                    
P 17 -14570.267176 -22292.654117   1598.510915   -203.847007                    
V 17   2680.586902     73.852658  31898.103627     -0.002417                    
P 18    983.176415  16284.549762  21491.783444    519.125796                    
V 18 -25869.582085   4166.268865  -2285.039512      0.040943                    
P 19 -18167.573887 -16999.150285  -8982.843361   -525.662550                    
V 19  -3980.626947 -10710.963388  29464.780248      0.000449                    
P 20 -19712.694278  13449.467628  11558.342881    414.240894                    
V 20 -15322.705631    143.695491 -25919.838718      0.023398                    
P 21    -90.163223  24239.021083  11316.020127   -523.732657                    
V 21  -7523.199298  11500.427240 -26714.913926     -0.012348                    
P 22  23685.386139  -9653.879957  -7161.772685    335.323894                    
V 22   9929.129736   2042.052376  28980.362155     -0.082883                    
P 23   6378.757497 -15528.706365 -20289.457435   -175.200020                    
V 23  17320.575192  19907.516437 -10138.456699     -0.016431                    
P 24 -15134.438456  18963.855340  10515.033449    -17.569948                    
V 24   1990.849376 -13696.993723  27607.537564     -0.005746                    
P 25  -8364.126692  14998.550966 -20332.792027   -177.481466                    
V 25 -25426.953051   2615.752557  12653.666796     -0.070551                    
P 26  23143.891936   5066.769118 -12063.792510   -374.642392                    
V 26 -14778.235529   4564.992373 -26398.044610     -0.120505                    
P 27  19656.493158   6438.600461  16724.962512     96.013490                    
V 27  11973.697233  17567.954341 -20628.254817      0.041045                    
P 28 -11468.956993 -12948.623026  20795.972227    525.307736                    
V 28  24825.075449  -2210.873986  12660.950376      0.026825                    
P 29   -455.998686  19969.268334 -17519.796408    657.105938                    
V 29 -13830.499435 -17424.512176 -19447.820682     -0.001225                    
P 30  -2655.621827 -20890.997811  16114.551732    127.857229                    
V 30  10843.548048 -17578.783297 -21087.578423      0.029909                    
P 31  11306.235226  10626.391997 -21406.198337    267.359167                    
V 31 -11669.507307  24850.329121   6496.839916     -0.018873                    
P 32  16758.017999  20609.900536   -439.705746    -11.455000                    
V 32  -1867.263082   2209.125198  31723.601959     -0.065693                    
EOF
